METHANESAT              
1 59101U 24043D   25346.90876304  .00006413  00000+0  56463-3 0  9996
2 59101  97.8212 112.5017 0008944 273.0923  86.9275 14.96804906 96778
GOSAT-GW (IBUKI GW)     
1 64694U 25141A   25347.05522472  .00001702  00000+0  30837-3 0  9993
2 64694  98.0426 282.5624 0001452  84.5408 275.5963 14.67558546 24543
GHGSAT-C1               
1 46278U 20061G   25346.96581747  .00032655  00000+0  42083-3 0  9993
2 46278  97.2317  62.5981 0002153  41.6027 318.5393 15.58960336294351
GHGSAT-C12              
1 64529U 25135B   25346.95639958  .00006170  00000+0  30070-3 0  9992
2 64529  97.4606  98.8347 0006507 100.5341 259.6627 15.18675524 26549
GHGSAT-C13              
1 64548U 25135W   25346.91650995  .00005756  00000+0  27469-3 0  9990
2 64548  97.4633  99.0923 0002501  68.6413 291.5088 15.19454507 26551
GHGSAT-C2               
1 47509U 21006DA  25347.02675394  .00010123  00000+0  29906-3 0  9996
2 47509  97.2447  32.4926 0006902 111.4614 248.7366 15.35115273271268
GHGSAT-C3               
1 52737U 22057F   25347.00884407  .00010653  00000+0  35399-3 0  9998
2 52737  97.6335 121.4229 0007486  66.8480 293.3549 15.31360658197018
GHGSAT-C4               
1 52746U 22057Q   25346.96253921  .00010051  00000+0  33425-3 0  9993
2 52746  97.6262 120.3940 0007567  54.4826 305.7120 15.31350671197019
GHGSAT-C5               
1 52744U 22057N   25346.97978249  .00010452  00000+0  34753-3 0  9999
2 52744  97.6422 122.7498 0008411  63.0498 297.1601 15.31340333197011
GHGSAT-C6               
1 56204U 23054AC  25347.00616237  .00019776  00000+0  39392-3 0  9995
2 56204  97.3169 249.2431 0008541  17.5327 342.6216 15.46899819149617
GHGSAT-C7               
1 56209U 23054AH  25346.99259747  .00015571  00000+0  32823-3 0  9997
2 56209  97.3128 248.4578 0008643   8.8978 351.2423 15.45292177149594
GHGSAT-C8               
1 56186U 23054J   25346.97909186  .00019603  00000+0  39034-3 0  9999
2 56186  97.3134 248.6429 0007079  40.1033 320.0738 15.46923252149594
SENTINEL-5P             
1 42969U 17064A   25346.76682892  .00000152  00000+0  93228-4 0  9991
2 42969  98.7785 285.3507 0000950  88.8819 271.2466 14.19517585423117
ENMAP                   
1 52159U 22033C   25347.01499840  .00001101  00000+0  17129-3 0  9993
2 52159  97.9793  66.9237 0001381  84.0015 276.1351 14.74947905199219
PRISMA                  
1 44072U 19015A   25347.00140169  .00001229  00000+0  15515-3 0  9998
2 44072  97.8695  59.4564 0001226  92.7008 267.4346 14.83692553364442
SENTINEL-2A             
1 40697U 15028A   25346.99089800  .00000191  00000+0  89346-4 0  9999
2 40697  98.5686  59.5192 0001095  87.8380 272.2928 14.30812955547107
SENTINEL-2B             
1 42063U 17013A   25347.05363993  .00000236  00000+0  10682-3 0  9996
2 42063  98.5711  59.4947 0001159  92.6477 267.4839 14.30816017458026
SENTINEL-2C             
1 60989U 24157A   25346.94886838  .00000222  00000+0  10118-3 0  9994
2 60989  98.5683  59.4284 0001198  97.4260 262.7060 14.30817628 66355
LANDSAT 8               
1 39084U 13008A   25346.99972956  .00000659  00000+0  15629-3 0  9997
2 39084  98.2073  55.0693 0001092  88.9847 271.1476 14.57114446670782
LANDSAT 9               
1 49260U 21088A   25346.75942624  .00000732  00000+0  17251-3 0  9999
2 49260  98.2095  54.8703 0001174  89.1031 271.0302 14.57098196223853
